STARLINK-30349
1 57713U 23129R   26061.16668981  .01114205  00000+0  48323-1 0  9994
2 57713  43.0009 160.2484 0001562 273.3033  85.9064 15.18918525  5823
STARLINK-30385
1 57778U 23134H   26061.16668981  .01213848  00000+0  52218-1 0  9992
2 57778  42.9997 225.1881 0001700 308.6622  52.7702 15.18946678  5775
